NAVSTAR 77 (USA 289)    
1 43873U 18109A   24195.76729867 -.00000004  00000+0  00000+0 0  9990
2 43873  55.3063 119.9783 0029338 194.3445 346.6155  2.00557378 40968
